STARLINK-31530
1 59322U 24057C   26092.83335647  .00270471  00000+0  48802-2 0  9991
2 59322  42.9955  45.3515 0018697 178.8468 172.9776 15.47847204  5874
